{
    "links": {
        "self": "http://www.neowsapp.com/rest/v1/neo/3390108?api_key=iIulBulltgU6a56xZRHN4H3l9WmuAYTsLGpBGhQ2"
    },
    "id": "3390108",
    "neo_reference_id": "3390108",
    "name": "(2007 UM12)",
    "designation": "2007 UM12",
    "nasa_jpl_url": "http://ssd.jpl.nasa.gov/sbdb.cgi?sstr=3390108",
    "absolute_magnitude_h": 21.6,
    "estimated_diameter": {
        "kilometers": {
            "estimated_diameter_min": 0.1272198785,
            "estimated_diameter_max": 0.2844722965
        },
        "meters": {
            "estimated_diameter_min": 127.2198785394,
            "estimated_diameter_max": 284.4722965033
        },
        "miles": {
            "estimated_diameter_min": 0.0790507431,
            "estimated_diameter_max": 0.1767628354
        },
        "feet": {
            "estimated_diameter_min": 417.3880663071,
            "estimated_diameter_max": 933.3080892598
        }
    },
    "is_potentially_hazardous_asteroid": false,
    "close_approach_data": [
        {
            "close_approach_date": "1982-08-15",
            "close_approach_date_full": "1982-Aug-15 13:56",
            "epoch_date_close_approach": 398267760000,
            "relative_velocity": {
                "kilometers_per_second": "14.1818098848",
                "kilometers_per_hour": "51054.5155851158",
                "miles_per_hour": "31723.2905312071"
            },
            "miss_distance": {
                "astronomical": "0.3850107876",
                "lunar": "149.7691963764",
                "kilometers": "57596793.751982412",
                "miles": "35788988.0800528056"
            },
            "orbiting_body": "Earth"
        },
        {
            "close_approach_date": "1991-11-02",
            "close_approach_date_full": "1991-Nov-02 18:24",
            "epoch_date_close_approach": 689106240000,
            "relative_velocity": {
                "kilometers_per_second": "16.1281334936",
                "kilometers_per_hour": "58061.2805770964",
                "miles_per_hour": "36077.0218119186"
            },
            "miss_distance": {
                "astronomical": "0.37737623",
                "lunar": "146.79935347",
                "kilometers": "56454680.1966301",
                "miles": "35079311.62489138"
            },
            "orbiting_body": "Earth"
        },
        {
            "close_approach_date": "2007-10-21",
            "close_approach_date_full": "2007-Oct-21 00:50",
            "epoch_date_close_approach": 1192927800000,
            "relative_velocity": {
                "kilometers_per_second": "10.1865152043",
                "kilometers_per_hour": "36671.4547354235",
                "miles_per_hour": "22786.2158604636"
            },
            "miss_distance": {
                "astronomical": "0.1591090675",
                "lunar": "61.8934272575",
                "kilometers": "23802377.595686225",
                "miles": "14790111.611370905"
            },
            "orbiting_body": "Earth"
        }
    ],
    "orbital_data": {
        "orbit_id": "13",
        "orbit_determination_date": "2017-04-06 09:05:30",
        "first_observation_date": "2007-10-26",
        "last_observation_date": "2007-12-05",
        "data_arc_in_days": 40,
        "observations_used": 56,
        "orbit_uncertainty": "6",
        "minimum_orbit_intersection": ".0779485",
        "jupiter_tisserand_invariant": "4.049",
        "epoch_osculation": "2459000.5",
        "eccentricity": ".3908936042645272",
        "semi_major_axis": "1.733013102924852",
        "inclination": "9.98237730800812",
        "ascending_node_longitude": "208.4885339781267",
        "orbital_period": "833.2996441479672",
        "perihelion_distance": "1.055589364884904",
        "perihelion_argument": "152.4873332937849",
        "aphelion_distance": "2.410436840964799",
        "perihelion_time": "2459377.871808521721",
        "mean_anomaly": "196.9687878521449",
        "mean_motion": ".432017465179759",
        "equinox": "J2000",
        "orbit_class": {
            "orbit_class_type": "AMO",
            "orbit_class_description": "Near-Earth asteroid orbits similar to that of 1221 Amor",
            "orbit_class_range": "1.017 AU < q (perihelion) < 1.3 AU"
        }
    },
    "is_sentry_object": false
}